NORAD_CAT_ID,OBJECT_NAME,OBJECT_TYPE,EPOCH,MEAN_MOTION,ECCENTRICITY,INCLINATION,RA_OF_ASC_NODE,ARG_OF_PERICENTER,MEAN_ANOMALY,BSTAR,MEAN_MOTION_DOT,MEAN_MOTION_DDOT,TLE_LINE0,TLE_LINE1,TLE_LINE2,SEMIMAJOR_AXIS,PERIOD,APOGEE,PERIGEE,DECAYED
54763.0,STARLINK-5191,PAYLOAD,2024-05-17 06:16:01,15.08851256,0.0001802,53.2179,133.5365,80.2545,279.865,-4.0429e-05,-9.32e-06,0.0,0 STARLINK-5191,1 54763U 22175F   24138.26112695 -.00000932  00000-0 -40429-4 0  9991,2 54763  53.2179 133.5365 0001802  80.2545 279.8650 15.08851256 80067,6917.846,95.437,540.958,538.464,0.0
54763.0,STARLINK-5191,PAYLOAD,2024-05-18 06:06:48,15.08844182,0.0001725,53.2176,129.0767,86.225,273.8939,-1.5266e-05,-5.31e-06,0.0,0 STARLINK-5191,1 54763U 22175F   24139.25472549 -.00000531  00000-0 -15266-4 0  9994,2 54763  53.2176 129.0767 0001725  86.2250 273.8939 15.08844182 78053,6917.868,95.437,540.926,538.539,0.0
54763.0,STARLINK-5191,PAYLOAD,2024-05-19 04:22:13,15.08829114,0.0001564,53.217,124.9133,83.9453,276.1717,-2.053e-05,-6.15e-06,0.0,0 STARLINK-5191,1 54763U 22175F   24140.18209670 -.00000615  00000-0 -20530-4 0  9994,2 54763  53.2170 124.9133 0001564  83.9453 276.1717 15.08829114 78191,6917.914,95.438,540.861,538.697,0.0
54763.0,STARLINK-5191,PAYLOAD,2024-05-20 04:12:59,15.08837563,0.0001421,53.2166,120.4545,83.2891,276.8262,9.5799e-05,1.237e-05,0.0,0 STARLINK-5191,1 54763U 22175F   24141.17569125  .00001237  00000-0  95799-4 0  9996,2 54763  53.2166 120.4545 0001421  83.2891 276.8262 15.08837563 78341,6917.888,95.438,540.736,538.77,0.0
54763.0,STARLINK-5191,PAYLOAD,2024-05-20 07:23:45,15.0884071,0.0001466,53.2172,119.8599,83.8747,276.2412,0.00011844,1.598e-05,0.0,0 STARLINK-5191,1 54763U 22175F   24141.30816885  .00001598  00000-0  11844-3 0  9997,2 54763  53.2172 119.8599 0001466  83.8747 276.2412 15.08840710 80526,6917.878,95.438,540.757,538.729,0.0
54763.0,STARLINK-5191,PAYLOAD,2024-05-21 04:03:47,15.08833046,0.000149,53.2181,115.9929,87.2308,272.8855,5.0562e-05,5.17e-06,0.0,0 STARLINK-5191,1 54763U 22175F   24142.16929808  .00000517  00000-0  50562-4 0  9993,2 54763  53.2181 115.9929 0001490  87.2308 272.8855 15.08833046 78498,6917.902,95.438,540.797,538.736,0.0
54763.0,STARLINK-5191,PAYLOAD,2024-05-21 07:14:33,15.08832761,0.0001464,53.2178,115.3982,82.8863,277.2296,4.443e-05,4.19e-06,0.0,0 STARLINK-5191,1 54763U 22175F   24142.30177908  .00000419  00000-0  44430-4 0  9993,2 54763  53.2178 115.3982 0001464  82.8863 277.2296 15.08832761 80679,6917.903,95.438,540.78,538.755,0.0
54763.0,STARLINK-5191,PAYLOAD,2024-05-22 07:05:20,15.088438,0.0001443,53.218,110.9374,88.2506,271.8652,2.3377e-05,8.4e-07,0.0,0 STARLINK-5191,1 54763U 22175F   24143.29537370  .00000084  00000-0  23377-4 0  9990,2 54763  53.2180 110.9374 0001443  88.2506 271.8652 15.08843800 78667,6917.869,95.437,540.732,538.736,0.0
54763.0,STARLINK-5191,PAYLOAD,2024-05-23 05:20:44,15.08833478,0.0001432,53.218,106.7742,86.092,274.0235,4.4504e-05,4.2e-06,0.0,0 STARLINK-5191,1 54763U 22175F   24144.22274043  .00000420  00000-0  44504-4 0  9998,2 54763  53.2180 106.7742 0001432  86.0920 274.0235 15.08833478 78801,6917.9,95.438,540.756,538.775,0.0
54763.0,STARLINK-5191,PAYLOAD,2024-05-23 06:56:07,15.0883278,0.0001439,53.218,106.4771,85.6239,274.4918,3.911e-05,3.34e-06,0.0,0 STARLINK-5191,1 54763U 22175F   24144.28898134  .00000334  00000-0  39110-4 0  9998,2 54763  53.2180 106.4771 0001439  85.6239 274.4918 15.08832780 80973,6917.902,95.438,540.763,538.772,0.0
54763.0,STARLINK-5191,PAYLOAD,2024-05-24 06:46:54,15.08846132,0.0001379,53.2177,102.0185,86.7441,273.3709,5.9246e-05,6.55e-06,0.0,0 STARLINK-5191,1 54763U 22175F   24145.28257207  .00000655  00000-0  59246-4 0  9997,2 54763  53.2177 102.0185 0001379  86.7441 273.3709 15.08846132 78968,6917.862,95.437,540.681,538.773,0.0
54763.0,STARLINK-5191,PAYLOAD,2024-05-24 21:05:23,15.0883765,0.0001342,53.2176,99.3447,74.9249,285.1891,1.8232e-05,2e-08,0.0,0 STARLINK-5191,1 54763U 22175F   24145.87873869  .00000002  00000-0  18232-4 0  9996,2 54763  53.2176  99.3447 0001342  74.9249 285.1891 15.08837650 79050,6917.888,95.438,540.681,538.824,0.0
54763.0,STARLINK-5191,PAYLOAD,2024-05-25 01:51:32,15.0883247,0.0001281,53.2177,98.4483,81.733,278.3807,-1.1431e-05,-4.7e-06,0.0,0 STARLINK-5191,1 54763U 22175F   24146.07746284 -.00000470  00000-0 -11431-4 0  9994,2 54763  53.2177  98.4483 0001281  81.7330 278.3807 15.08832470 81240,6917.903,95.438,540.655,538.882,0.0
54763.0,STARLINK-5191,PAYLOAD,2024-05-26 03:17:41,15.08855278,0.0001473,53.2174,93.6921,90.4804,269.6357,7.7778e-05,9.51e-06,0.0,0 STARLINK-5191,1 54763U 22175F   24147.13728896  .00000951  00000-0  77778-4 0  9999,2 54763  53.2174  93.6921 0001473  90.4804 269.6357 15.08855278 79248,6917.834,95.437,540.718,538.68,0.0
54763.0,STARLINK-5191,PAYLOAD,2024-05-26 20:46:57,15.08828617,0.00011,53.2175,90.4196,80.8889,279.2227,5.1849e-05,5.37e-06,0.0,0 STARLINK-5191,1 54763U 22175F   24147.86594602  .00000537  00000-0  51849-4 0  9996,2 54763  53.2175  90.4196 0001100  80.8889 279.2227 15.08828617 79353,6917.915,95.438,540.541,539.019,0.0
54763.0,STARLINK-5191,PAYLOAD,2024-05-27 12:40:49,15.08830124,0.000141,53.2179,87.445,105.5297,254.5851,1.2895e-05,-8.3e-07,0.0,0 STARLINK-5191,1 54763U 22175F   24148.52834914 -.00000083  00000-0  12895-4 0  9998,2 54763  53.2179  87.4450 0001410 105.5297 254.5851 15.08830124 81615,6917.911,95.438,540.751,538.8,0.0
54763.0,STARLINK-5191,PAYLOAD,2024-05-27 19:02:21,15.08839486,0.0001391,53.2176,86.2543,109.9153,250.1989,4.5885e-05,4.42e-06,0.0,0 STARLINK-5191,1 54763U 22175F   24148.79330153  .00000442  00000-0  45885-4 0  9996,2 54763  53.2176  86.2543 0001391 109.9153 250.1989 15.08839486 79496,6917.882,95.438,540.709,538.785,0.0
54763.0,STARLINK-5191,PAYLOAD,2024-05-28 12:31:35,15.0884444,0.0001249,53.2171,82.9844,105.9496,254.1634,8.1332e-05,1.007e-05,0.0,0 STARLINK-5191,1 54763U 22175F   24149.52193533  .00001007  00000-0  81332-4 0  9992,2 54763  53.2171  82.9844 0001249 105.9496 254.1634 15.08844440 81766,6917.867,95.437,540.596,538.868,0.0
54763.0,STARLINK-5191,PAYLOAD,2024-05-29 04:25:27,15.08830135,0.0001258,53.2172,80.0116,103.2426,256.8706,9.931e-07,-2.72e-06,0.0,0 STARLINK-5191,1 54763U 22175F   24150.18434963 -.00000272  00000-0  99310-6 0  9992,2 54763  53.2172  80.0116 0001258 103.2426 256.8706 15.08830135 79708,6917.911,95.438,540.646,538.905,0.0
54763.0,STARLINK-5191,PAYLOAD,2024-05-30 04:16:13,15.08846242,0.0001313,53.2178,75.553,96.8061,263.308,5.4265e-05,5.76e-06,0.0,0 STARLINK-5191,1 54763U 22175F   24151.17793970  .00000576  00000-0  54265-4 0  9992,2 54763  53.2178  75.5530 0001313  96.8061 263.3080 15.08846242 79857,6917.861,95.437,540.635,538.818,0.0
54763.0,STARLINK-5191,PAYLOAD,2024-05-30 04:16:14,15.08844746,0.0001505,53.2189,75.548,76.7629,283.3531,6.3048e-05,7.16e-06,0.0,0 STARLINK-5191,1 54763U 22175F   24151.17794146  .00000716  00000-0  63048-4 0  9993,2 54763  53.2189  75.5480 0001505  76.7629 283.3531 15.08844746 82015,6917.866,95.437,540.772,538.69,0.0
54763.0,STARLINK-5191,PAYLOAD,2024-05-31 04:07:01,15.08835968,0.000163,53.2192,71.0868,75.0622,285.0551,7.9007e-05,9.69e-06,0.0,0 STARLINK-5191,1 54763U 22175F   24152.17154680  .00000969  00000-0  79007-4 0  9999,2 54763  53.2192  71.0868 0001630  75.0622 285.0551 15.08835968 80008,6917.893,95.438,540.885,538.63,0.0
54763.0,STARLINK-5191,PAYLOAD,2024-06-01 00:47:02,15.08842032,0.0001734,53.2205,67.2246,91.0032,269.1159,-3.9231e-05,-9.12e-06,0.0,0 STARLINK-5191,1 54763U 22175F   24153.03266524 -.00000912  00000-0 -39231-4 0  9991,2 54763  53.2205  67.2246 0001734  91.0032 269.1159 15.08842032 82298,6917.874,95.437,540.939,538.54,0.0
54763.0,STARLINK-5191,PAYLOAD,2024-06-01 21:27:03,15.08833082,0.0001497,53.2192,63.3582,104.2945,255.8213,4.2057e-06,-2.21e-06,0.0,0 STARLINK-5191,1 54763U 22175F   24153.89378837 -.00000221  00000-0  42057-5 0  9999,2 54763  53.2192  63.3582 0001497 104.2945 255.8213 15.08833082 80262,6917.902,95.438,540.802,538.731,0.0
54763.0,STARLINK-5191,PAYLOAD,2024-06-02 00:37:49,15.08833286,0.0001407,53.2188,62.7641,105.377,254.7378,-4.498e-05,-1.004e-05,0.0,0 STARLINK-5191,1 54763U 22175F   24154.02627066 -.00001004  00000-0 -44980-4 0  9993,2 54763  53.2188  62.7641 0001407 105.3770 254.7378 15.08833286 82443,6917.901,95.438,540.739,538.793,0.0
54763.0,STARLINK-5191,PAYLOAD,2024-06-03 03:39:23,15.08835349,0.0001225,53.2175,57.7101,90.3012,269.812,2.3147e-05,8.1e-07,0.0,0 STARLINK-5191,1 54763U 22175F   24155.15235110  .00000081  00000-0  23147-4 0  9997,2 54763  53.2175  57.7101 0001225  90.3012 269.8120 15.08835349 80457,6917.895,95.438,540.607,538.912,0.0
54763.0,STARLINK-5191,PAYLOAD,2024-06-03 10:00:54,15.08846955,0.0001392,53.2194,56.5235,96.9627,263.1523,7.6242e-05,9.26e-06,0.0,0 STARLINK-5191,1 54763U 22175F   24155.41730175  .00000926  00000-0  76242-4 0  9999,2 54763  53.2194  56.5235 0001392  96.9627 263.1523 15.08846955 80495,6917.859,95.437,540.687,538.761,0.0
54763.0,STARLINK-5191,PAYLOAD,2024-06-03 17:57:50,15.08841954,0.0002137,53.2186,55.0357,87.7155,272.4082,0.00015187,2.13e-05,0.0,0 STARLINK-5191,1 54763U 22175F   24155.74850496  .00002130  00000-0  15187-3 0  9993,2 54763  53.2186  55.0357 0002137  87.7155 272.4082 15.08841954 82700,6917.874,95.437,541.218,538.261,0.0
54763.0,STARLINK-5191,PAYLOAD,2024-06-04 00:19:23,15.08839352,0.0001988,53.2191,53.8466,93.9367,266.1853,0.00012157,1.647e-05,0.0,0 STARLINK-5191,1 54763U 22175F   24156.01346720  .00001647  00000-0  12157-3 0  9990,2 54763  53.2191  53.8466 0001988  93.9367 266.1853 15.08839352 80589,6917.882,95.438,541.123,538.372,0.0
54763.0,STARLINK-5191,PAYLOAD,2024-06-04 22:34:47,15.08856701,0.0001923,53.2221,49.6828,90.6656,269.4557,-0.00021839,-3.764e-05,0.0,0 STARLINK-5191,1 54763U 22175F   24156.94083129 -.00003764  00000-0 -21839-3 0  9994,2 54763  53.2221  49.6828 0001923  90.6656 269.4557 15.08856701 82881,6917.829,95.436,541.025,538.364,0.0
